CELESTIS-02 & TAURUS R/B
1 25160U 98007D   26032.94703475  .00000048  00000+0  78303-4 0  9996
2 25160 108.0140  59.2873 0061687   2.3966  58.9854 14.22441752451289
