[{"OBJECT_NAME":"CELESTIS-02 & TAURUS R/B","OBJECT_ID":"1998-007D","EPOCH":"2026-02-01T22:43:43.802400","MEAN_MOTION":14.22441752,"ECCENTRICITY":0.00616879,"INCLINATION":108.014,"RA_OF_ASC_NODE":59.2873,"ARG_OF_PERICENTER":2.3966,"MEAN_ANOMALY":58.9854,"EPHEMERIS_TYPE":0,"CLASSIFICATION_TYPE":"U","NORAD_CAT_ID":25160,"ELEMENT_SET_NO":999,"REV_AT_EPOCH":45128,"BSTAR":7.8303343e-5,"MEAN_MOTION_DOT":4.8e-7,"MEAN_MOTION_DDOT":0}]
